IRIDIUM 126             
1 42809U 17039G   25344.49457022  .00000481  00000+0  16456-3 0  9991
2 42809  86.3968  72.5245 0001879  97.6947 262.4462 14.34217484442900
IRIDIUM 124             
1 42810U 17039H   25344.81916283  .00000477  00000+0  13574-3 0  9991
2 42810  86.4498   9.1106 0002262  97.4003 262.7455 14.43280580447942
IRIDIUM 128             
1 42811U 17039J   25344.62484682  .00000569  00000+0  19624-3 0  9998
2 42811  86.3962 104.0035 0002320 100.9289 259.2168 14.34217741442952
IRIDIUM 121             
1 42812U 17039K   25344.65313631  .00000287  00000+0  95358-4 0  9993
2 42812  86.3967  72.4846 0002192  95.8519 264.2926 14.34218693442800
IRIDIUM 133             
1 42955U 17061A   25344.37749389  .00000545  00000+0  18755-3 0  9990
2 42955  86.3967 104.2202 0002055  97.4309 262.7120 14.34214616427714
IRIDIUM 100             
1 42956U 17061B   25344.58044038  .00000518  00000+0  17799-3 0  9990
2 42956  86.3962 104.0581 0001973  97.5495 262.5925 14.34216731427747
IRIDIUM 122             
1 42957U 17061C   25344.61850409  .00000043  00000+0  81229-5 0  9996
2 42957  86.3962 104.0421 0001927  97.1411 263.0004 14.34217365427753
IRIDIUM 129             
1 42958U 17061D   25344.57410463  .00000587  00000+0  20258-3 0  9990
2 42958  86.3964 104.1257 0001849  85.3969 274.7438 14.34217136427761
